IRIDIUM 921             
1 24873U 97034E   24187.77329830  .00031154  00000+0  76052-3 0  9994
2 24873  86.3813 278.9028 0005381 159.8242 200.3226 15.40698536478044
IRIDIUM 26              
1 24903U 97043A   24188.20723147  .00000508  00000+0  16665-3 0  9999
2 24903  86.3950 255.7737 0002350  99.1492 260.9971 14.36424705407530
IRIDIUM 22              
1 24907U 97043E   24188.20790112  .00000519  00000+0  17429-3 0  9990
2 24907  86.3953 259.0262 0002238  93.7805 266.3647 14.35312704407129
DUMMY MASS 1            
1 24925U 97048A   24187.84283393  .00000679  00000+0  74096-4 0  9993
2 24925  86.3349 295.3681 0004715 305.6406  54.4379 14.86271408453670
DUMMY MASS 2            
1 24926U 97048B   24187.88249790  .00000676  00000+0  74180-4 0  9992
2 24926  86.3349 296.8965 0005802 318.6048  41.4736 14.86029279453463
IRIDIUM 29              
1 24944U 97051A   24187.78667845  .00000590  00000+0  19738-3 0  9992
2 24944  86.3955 289.1058 0002002  90.2330 269.9096 14.35761901403550
IRIDIUM 33              
1 24946U 97051C   24187.83094009  .00000470  00000+0  16018-3 0  9991
2 24946  86.3871 288.3374 0009794 121.6615 238.5537 14.34408418403081
IRIDIUM 28              
1 24948U 97051E   24187.77824437  .00000616  00000+0  20261-3 0  9999
2 24948  86.3960 286.8215 0002513 101.8738 258.2741 14.36716593404093
